ALOS (DAICHI)           
1 28931U 06002A   26064.14599307  .00001919  00000+0  32982-3 0  9993
2 28931  98.1211  20.1244 0001093  51.5036 308.6268 14.69792382 72815
H-2A R/B                
1 28932U 06002B   26063.39603697  .00015424  00000+0  77274-3 0  9997
2 28932  98.2401 209.9655 0051848 259.2061 100.3331 15.16285860 93631
RESURS-DK 1             
1 29228U 06021A   26063.90673237  .00003426  00000+0  20128-3 0  9996
2 29228  69.9303 249.3962 0002378 164.4869 195.6371 15.12703724 86804
CZ-4B R/B               
1 29507U 06046C   26064.12347148  .00006347  00000+0  32200-3 0  9996
2 29507  97.5599 109.0443 0031656 283.9098  75.8614 15.16848388 59355
CZ-2C R/B               
1 31114U 07010B   26064.14662879  .00000169  00000+0  96688-4 0  9995
2 31114  98.3977 177.6533 0058013 308.0710  51.5242 14.20244288979079
COSMO-SKYMED 1          
1 31598U 07023A   26064.18463071  .00004386  00000+0  39136-3 0  9991
2 31598  97.8861 255.1810 0000847  95.4148 264.7169 14.96491406 14238
COSMOS 2428             
1 31792U 07029A   26063.50827164  .00000067  00000+0  61426-4 0  9995
2 31792  70.9424 214.2185 0008843 282.5735  77.4396 14.12944763963362
SL-16 R/B               
1 31793U 07029B   26063.77582084 -.00000118  00000+0 -36368-4 0  9990
2 31793  70.9756 182.7130 0002384 277.8179 244.0771 14.14833705964672
KORONAS-FOTON           
1 33504U 09003A   26064.09581553  .00014608  00000+0  32767-3 0  9997
2 33504  82.4277 280.6547 0010878 165.1582 194.9987 15.43198328945033
CZ-2C R/B               
1 37731U 11030B   26063.87589544  .00002374  00000+0  30465-3 0  9999
2 37731  97.8538  21.2354 0052862   7.7647  14.5853 14.81199185789382
H-2A R/B                
1 38341U 12025E   26064.17779242  .00005295  00000+0  47989-3 0  9996
2 38341  98.4722  30.8624 0043700 329.3266  30.5398 14.95118457747541
SHIJIAN-16 (SJ-16)      
1 39358U 13057A   26064.20442874  .00005589  00000+0  54797-3 0  9994
2 39358  74.9735 193.5777 0015601 124.1103 236.1568 14.92324219670831
