CCSDS_OMM_VERS = 2.0
CREATION_DATE  = 
ORIGINATOR     = 

OBJECT_NAME    = ALOS (DAICHI)
OBJECT_ID      = 2006-002A
CENTER_NAME    = EARTH
REF_FRAME      = TEME
TIME_SYSTEM    = UTC
MEAN_ELEMENT_THEORY = SGP/SGP4

EPOCH          = 2026-03-05T03:30:13.801248
MEAN_MOTION    = 14.69792382
ECCENTRICITY   = .0001093
INCLINATION    = 98.1211
RA_OF_ASC_NODE = 20.1244
ARG_OF_PERICENTER = 51.5036
MEAN_ANOMALY   = 308.6268

EPHEMERIS_TYPE = 0
CLASSIFICATION_TYPE = U
NORAD_CAT_ID   = 28931
ELEMENT_SET_NO = 999
REV_AT_EPOCH   = 7281
BSTAR          = .32982E-3
MEAN_MOTION_DOT = .1919E-4
MEAN_MOTION_DDOT = 0

CCSDS_OMM_VERS = 2.0
CREATION_DATE  = 
ORIGINATOR     = 

OBJECT_NAME    = H-2A R/B
OBJECT_ID      = 2006-002B
CENTER_NAME    = EARTH
REF_FRAME      = TEME
TIME_SYSTEM    = UTC
MEAN_ELEMENT_THEORY = SGP/SGP4

EPOCH          = 2026-03-04T09:30:17.594208
MEAN_MOTION    = 15.16285860
ECCENTRICITY   = .0051848
INCLINATION    = 98.2401
RA_OF_ASC_NODE = 209.9655
ARG_OF_PERICENTER = 259.2061
MEAN_ANOMALY   = 100.3331

EPHEMERIS_TYPE = 0
CLASSIFICATION_TYPE = U
NORAD_CAT_ID   = 28932
ELEMENT_SET_NO = 999
REV_AT_EPOCH   = 9363
BSTAR          = .77274126E-3
MEAN_MOTION_DOT = .15424E-3
MEAN_MOTION_DDOT = 0

CCSDS_OMM_VERS = 2.0
CREATION_DATE  = 
ORIGINATOR     = 

OBJECT_NAME    = RESURS-DK 1
OBJECT_ID      = 2006-021A
CENTER_NAME    = EARTH
REF_FRAME      = TEME
TIME_SYSTEM    = UTC
MEAN_ELEMENT_THEORY = SGP/SGP4

EPOCH          = 2026-03-04T21:45:41.676768
MEAN_MOTION    = 15.12703724
ECCENTRICITY   = .0002378
INCLINATION    = 69.9303
RA_OF_ASC_NODE = 249.3962
ARG_OF_PERICENTER = 164.4869
MEAN_ANOMALY   = 195.6371

EPHEMERIS_TYPE = 0
CLASSIFICATION_TYPE = U
NORAD_CAT_ID   = 29228
ELEMENT_SET_NO = 999
REV_AT_EPOCH   = 8680
BSTAR          = .20128E-3
MEAN_MOTION_DOT = .3426E-4
MEAN_MOTION_DDOT = 0

CCSDS_OMM_VERS = 2.0
CREATION_DATE  = 
ORIGINATOR     = 

OBJECT_NAME    = CZ-4B R/B
OBJECT_ID      = 2006-046C
CENTER_NAME    = EARTH
REF_FRAME      = TEME
TIME_SYSTEM    = UTC
MEAN_ELEMENT_THEORY = SGP/SGP4

EPOCH          = 2026-03-05T02:57:47.935872
MEAN_MOTION    = 15.16848388
ECCENTRICITY   = .0031656
INCLINATION    = 97.5599
RA_OF_ASC_NODE = 109.0443
ARG_OF_PERICENTER = 283.9098
MEAN_ANOMALY   = 75.8614

EPHEMERIS_TYPE = 0
CLASSIFICATION_TYPE = U
NORAD_CAT_ID   = 29507
ELEMENT_SET_NO = 999
REV_AT_EPOCH   = 5935
BSTAR          = .322E-3
MEAN_MOTION_DOT = .6347E-4
MEAN_MOTION_DDOT = 0

CCSDS_OMM_VERS = 2.0
CREATION_DATE  = 
ORIGINATOR     = 

OBJECT_NAME    = CZ-2C R/B
OBJECT_ID      = 2007-010B
CENTER_NAME    = EARTH
REF_FRAME      = TEME
TIME_SYSTEM    = UTC
MEAN_ELEMENT_THEORY = SGP/SGP4

EPOCH          = 2026-03-05T03:31:08.727456
MEAN_MOTION    = 14.20244288
ECCENTRICITY   = .0058013
INCLINATION    = 98.3977
RA_OF_ASC_NODE = 177.6533
ARG_OF_PERICENTER = 308.0710
MEAN_ANOMALY   = 51.5242

EPHEMERIS_TYPE = 0
CLASSIFICATION_TYPE = U
NORAD_CAT_ID   = 31114
ELEMENT_SET_NO = 999
REV_AT_EPOCH   = 97907
BSTAR          = .96688E-4
MEAN_MOTION_DOT = .169E-5
MEAN_MOTION_DDOT = 0

CCSDS_OMM_VERS = 2.0
CREATION_DATE  = 
ORIGINATOR     = 

OBJECT_NAME    = COSMO-SKYMED 1
OBJECT_ID      = 2007-023A
CENTER_NAME    = EARTH
REF_FRAME      = TEME
TIME_SYSTEM    = UTC
MEAN_ELEMENT_THEORY = SGP/SGP4

EPOCH          = 2026-03-05T04:25:52.093344
MEAN_MOTION    = 14.96491406
ECCENTRICITY   = .0000847
INCLINATION    = 97.8861
RA_OF_ASC_NODE = 255.1810
ARG_OF_PERICENTER = 95.4148
MEAN_ANOMALY   = 264.7169

EPHEMERIS_TYPE = 0
CLASSIFICATION_TYPE = U
NORAD_CAT_ID   = 31598
ELEMENT_SET_NO = 999
REV_AT_EPOCH   = 1423
BSTAR          = .39136E-3
MEAN_MOTION_DOT = .4386E-4
MEAN_MOTION_DDOT = 0

CCSDS_OMM_VERS = 2.0
CREATION_DATE  = 
ORIGINATOR     = 

OBJECT_NAME    = COSMOS 2428
OBJECT_ID      = 2007-029A
CENTER_NAME    = EARTH
REF_FRAME      = TEME
TIME_SYSTEM    = UTC
MEAN_ELEMENT_THEORY = SGP/SGP4

EPOCH          = 2026-03-04T12:11:54.669696
MEAN_MOTION    = 14.12944763
ECCENTRICITY   = .00088436
INCLINATION    = 70.9424
RA_OF_ASC_NODE = 214.2185
ARG_OF_PERICENTER = 282.5735
MEAN_ANOMALY   = 77.4396

EPHEMERIS_TYPE = 0
CLASSIFICATION_TYPE = U
NORAD_CAT_ID   = 31792
ELEMENT_SET_NO = 999
REV_AT_EPOCH   = 96336
BSTAR          = .61425717E-4
MEAN_MOTION_DOT = .67E-6
MEAN_MOTION_DDOT = 0

CCSDS_OMM_VERS = 2.0
CREATION_DATE  = 
ORIGINATOR     = 

OBJECT_NAME    = SL-16 R/B
OBJECT_ID      = 2007-029B
CENTER_NAME    = EARTH
REF_FRAME      = TEME
TIME_SYSTEM    = UTC
MEAN_ELEMENT_THEORY = SGP/SGP4

EPOCH          = 2026-03-04T18:37:10.920576
MEAN_MOTION    = 14.14833705
ECCENTRICITY   = .0002384
INCLINATION    = 70.9756
RA_OF_ASC_NODE = 182.7130
ARG_OF_PERICENTER = 277.8179
MEAN_ANOMALY   = 244.0771

EPHEMERIS_TYPE = 0
CLASSIFICATION_TYPE = U
NORAD_CAT_ID   = 31793
ELEMENT_SET_NO = 999
REV_AT_EPOCH   = 96467
BSTAR          = -.36368E-4
MEAN_MOTION_DOT = -.118E-5
MEAN_MOTION_DDOT = 0

CCSDS_OMM_VERS = 2.0
CREATION_DATE  = 
ORIGINATOR     = 

OBJECT_NAME    = KORONAS-FOTON
OBJECT_ID      = 2009-003A
CENTER_NAME    = EARTH
REF_FRAME      = TEME
TIME_SYSTEM    = UTC
MEAN_ELEMENT_THEORY = SGP/SGP4

EPOCH          = 2026-03-05T02:17:58.461792
MEAN_MOTION    = 15.43198328
ECCENTRICITY   = .0010878
INCLINATION    = 82.4277
RA_OF_ASC_NODE = 280.6547
ARG_OF_PERICENTER = 165.1582
MEAN_ANOMALY   = 194.9987

EPHEMERIS_TYPE = 0
CLASSIFICATION_TYPE = U
NORAD_CAT_ID   = 33504
ELEMENT_SET_NO = 999
REV_AT_EPOCH   = 94503
BSTAR          = .32767E-3
MEAN_MOTION_DOT = .14608E-3
MEAN_MOTION_DDOT = 0

CCSDS_OMM_VERS = 2.0
CREATION_DATE  = 
ORIGINATOR     = 

OBJECT_NAME    = CZ-2C R/B
OBJECT_ID      = 2011-030B
CENTER_NAME    = EARTH
REF_FRAME      = TEME
TIME_SYSTEM    = UTC
MEAN_ELEMENT_THEORY = SGP/SGP4

EPOCH          = 2026-03-04T21:01:17.366016
MEAN_MOTION    = 14.81199185
ECCENTRICITY   = .0052862
INCLINATION    = 97.8538
RA_OF_ASC_NODE = 21.2354
ARG_OF_PERICENTER = 7.7647
MEAN_ANOMALY   = 14.5853

EPHEMERIS_TYPE = 0
CLASSIFICATION_TYPE = U
NORAD_CAT_ID   = 37731
ELEMENT_SET_NO = 999
REV_AT_EPOCH   = 78938
BSTAR          = .30465E-3
MEAN_MOTION_DOT = .2374E-4
MEAN_MOTION_DDOT = 0

CCSDS_OMM_VERS = 2.0
CREATION_DATE  = 
ORIGINATOR     = 

OBJECT_NAME    = H-2A R/B
OBJECT_ID      = 2012-025E
CENTER_NAME    = EARTH
REF_FRAME      = TEME
TIME_SYSTEM    = UTC
MEAN_ELEMENT_THEORY = SGP/SGP4

EPOCH          = 2026-03-05T04:16:01.265088
MEAN_MOTION    = 14.95118457
ECCENTRICITY   = .00437
INCLINATION    = 98.4722
RA_OF_ASC_NODE = 30.8624
ARG_OF_PERICENTER = 329.3266
MEAN_ANOMALY   = 30.5398

EPHEMERIS_TYPE = 0
CLASSIFICATION_TYPE = U
NORAD_CAT_ID   = 38341
ELEMENT_SET_NO = 999
REV_AT_EPOCH   = 74754
BSTAR          = .47989E-3
MEAN_MOTION_DOT = .5295E-4
MEAN_MOTION_DDOT = 0

CCSDS_OMM_VERS = 2.0
CREATION_DATE  = 
ORIGINATOR     = 

OBJECT_NAME    = SHIJIAN-16 (SJ-16)
OBJECT_ID      = 2013-057A
CENTER_NAME    = EARTH
REF_FRAME      = TEME
TIME_SYSTEM    = UTC
MEAN_ELEMENT_THEORY = SGP/SGP4

EPOCH          = 2026-03-05T04:54:22.643136
MEAN_MOTION    = 14.92324219
ECCENTRICITY   = .0015601
INCLINATION    = 74.9735
RA_OF_ASC_NODE = 193.5777
ARG_OF_PERICENTER = 124.1103
MEAN_ANOMALY   = 236.1568

EPHEMERIS_TYPE = 0
CLASSIFICATION_TYPE = U
NORAD_CAT_ID   = 39358
ELEMENT_SET_NO = 999
REV_AT_EPOCH   = 67083
BSTAR          = .54797E-3
MEAN_MOTION_DOT = .5589E-4
MEAN_MOTION_DDOT = 0

